
STRATOSAT-TK 1 (RS52S)  
1 57167U 23091B   25035.17588587  .00038192  00000+0  13791-2 0  9990
2 57167  97.5751  95.5704 0011532  36.9499 323.2532 15.28323096 88784
UMKA 1 (RS40S)          
1 57172U 23091G   25035.18614711  .00009130  00000+0  52042-3 0  9999
2 57172  97.5784  91.2967 0016210  50.6748 309.5916 15.12905827 88502
CUBESX-HSE 3 (RS42S)    
1 57178U 23091N   25035.22467911  .00015591  00000+0  79405-3 0  9998
2 57178  97.5819  92.7454 0015634  42.0528 318.1902 15.16776981 88584
MONITOR-3 (RS58S)       
1 57180U 23091Q   25035.33055880  .00012763  00000+0  67306-3 0  9996
2 57180  97.5812  92.4038 0016189  43.2057 317.0442 15.15588311 88574
MONITOR-4 (RS57S)       
1 57182U 23091S   25035.13225630  .00012554  00000+0  66160-3 0  9993
2 57182  97.5806  92.1647 0016265  44.5382 315.7154 15.15614958 88541
MONITOR-2 (RS39S)       
1 57184U 23091U   25035.31849140  .00008201  00000+0  47632-3 0  9990
2 57184  97.5813  91.8112 0013867  41.2907 318.9370 15.12293543 88530
SVYATOBOR 1 (RS60S)     
1 57187U 23091X   25035.29950929  .00012721  00000+0  66823-3 0  9993
2 57187  97.5815  93.0718 0012693  35.9609 324.2475 15.15771859 88615
VIZARD-METEO (RS38S)    
1 57189U 23091Z   25035.31150982  .00017192  00000+0  82070-3 0  9998
2 57189  97.5803  94.2237 0011171  31.3458 328.8440 15.19069375 88692
NANOZOND 1 (RS49S)      
1 57190U 23091AA  25035.32821647  .00031237  00000+0  11872-2 0  9991
2 57190  97.5762  96.2982 0008630  30.1954 329.9780 15.26704807 88841
POLYTECH-UNIVERSE 3 (R*)
1 57191U 23091AB  25035.32351528  .00008061  00000+0  46673-3 0  9995
2 57191  97.5783  91.4005 0019072  55.8407 304.4629 15.12335888 88526
UTMN 2 (RS27S)          
1 57203U 23091AP  25035.16194412  .00014847  00000+0  73491-3 0  9995
2 57203  97.5805  93.6502 0011726  33.1302 327.0664 15.17833922 88642
ARCCUBE 1 (RS25S)       
1 57205U 23091AR  25035.12484684  .00042211  00000+0  13872-2 0  9998
2 57205  97.5701  96.9621 0008095  27.8874 332.2799 15.31397658 88886
KUZGTU 1 (RS47S)        
1 57217U 23091AV  25035.20749629  .00014089  00000+0  72669-3 0  9995
2 57217  97.5793  92.4243 0015733  44.1021 316.1463 15.16353611 88573
SONATE-2                
1 59112U 24043Q   25034.82835266  .00023856  00000+0  83785-3 0  9992
2 59112  97.4960 164.1999 0011781 198.9087 161.1717 15.29329903 51074
MESAT1                  
1 60209U 24125G   25035.12815202  .00024104  00000+0  83591-3 0  9996
2 60209  97.2949 248.5604 0020343 224.8282 135.1316 15.29603607 32732
OOV-CUBE (TUBSAT-30)    
1 60240U 24128F   25034.71299946  .00005036  00000+0  42415-3 0  9992
2 60240  61.9968 159.1507 0037249  24.1261 336.1562 14.98983782 31281
COLIBRI-S (RS67S)       
1 61746U 24199M   25035.12828140  .00019022  00000+0  70362-3 0  9994
2 61746  97.3768 264.7878 0011949 271.5475  88.4395 15.27671386 60901
HORS 3 (RS81S)          
1 61753U 24199U   25035.19073784  .00021612  00000+0  79060-3 0  9997
2 61753  97.3742 264.8253 0010457 280.7165  79.2897 15.28026440 60912
HORS 4 (RS82S)          
1 61754U 24199V   25035.17742153  .00023768  00000+0  85865-3 0  9993
2 61754  97.3739 264.8412 0010485 281.4714  78.5348 15.28418396 60913
HORIZON (RS59S)         
1 61757U 24199Y   25035.14382501  .00029005  00000+0  10133-2 0  9995
2 61757  97.3765 264.9162 0011368 269.9590  90.0347 15.29466185 60910
SIT-2086                
1 61764U 24199AF  25035.20687138  .00024852  00000+0  87887-3 0  9990
2 61764  97.3743 264.9561 0008832 281.9530  78.0720 15.29123882 57761
MORDOVIA-IOT (RS50S)    
1 61765U 24199AG  25035.22083775  .00035976  00000+0  11981-2 0  9990
2 61765  97.3764 265.1171 0010892 266.1784  93.8212 15.30979231 57782
RUZAEVKA 390 (RS44S)    
1 61766U 24199AH  25035.16443539  .00034393  00000+0  11596-2 0  9996
2 61766  97.3763 265.0370 0010839 265.7490  94.2512 15.30590340 57779
HYPERVIEW 1G (RS66S)    
1 61772U 24199AP  25035.21050079  .00026897  00000+0  97753-3 0  9992
2 61772  97.3739 264.7965 0014341 283.3815  76.5826 15.28149892 57763
ALTAIR (RS65S)          
1 61779U 24199AW  25034.82461302  .00013958  00000+0  54951-3 0  9997
2 61779  97.3748 264.2554 0015082 285.4387  74.5185 15.25629082 60849
ASRTU-1 (AO-123)        
1 61781U 24199AY  25035.16365033  .00012956  00000+0  51293-3 0  9995
2 61781  97.3747 264.5640 0015301 284.3434  75.6106 15.25456177 57748
TUSUR GO (RS78S)        
1 61782U 24199AZ  25034.77169401  .00031142  00000+0  11370-2 0  9992
2 61782  97.3738 264.3193 0015381 284.9387  75.0149 15.27954807 57691
SAMSAT-IONOSPHERE (RS7*)
1 61784U 24199BB  25034.78742988  .00024243  00000+0  90712-3 0  9994
2 61784  97.3742 264.2997 0015458 285.0665  74.8864 15.27195666 60847
RTU MIREA 1 (RS51S)     
1 61785U 24199BC  25034.78371032  .00024642  00000+0  91814-3 0  9990
2 61785  97.3741 264.3046 0015321 284.6709  75.2831 15.27334997 57696
CUTE-1 (CO-55)          
1 27844U 03031E   25034.54735730  .00000814  00000+0  37489-3 0  9996
2 27844  98.6787  44.4440 0009490 187.0669 173.0377 14.23801466120704
CUBESAT XI-IV (CO-57)   
1 27848U 03031J   25034.93008145  .00000644  00000+0  30436-3 0  9992
2 27848  98.6815  44.9195 0009121 203.1934 156.8834 14.23165096120493
CUBESAT XI-V            
1 28895U 05043F   25034.91789504  .00003760  00000+0  63319-3 0  9991
2 28895  98.2278 177.9239 0014668 348.7758  11.3119 14.70082387 28472
CUTE-1.7+APD II (CO-65) 
1 32785U 08021C   25035.00943929  .00009538  00000+0  73162-3 0  9993
2 32785  97.7666   5.5689 0008658 281.6645  78.3608 15.01989133910282
AAUSAT-II               
1 32788U 08021F   25034.41428011  .00095218  00000+0  19529-2 0  9996
2 32788  97.6054  25.5506 0007484  89.1407 271.0699 15.45670355913655
CANX-2                  
1 32790U 08021H   25035.16272384  .00007757  00000+0  63225-3 0  9996
2 32790  97.7967   4.2795 0010976 275.3510  84.6461 14.99712939910082
SEEDS II (CO-66)        
1 32791U 08021J   25034.86494831  .00019649  00000+0  10988-2 0  9996
2 32791  97.7177  12.6489 0002599 207.9327 152.1764 15.13513582911446
SWISSCUBE               
1 35932U 09051B   25034.62163186  .00003034  00000+0  63209-3 0  9996
2 35932  98.4446 288.4462 0006502 332.9186  27.1673 14.60724811816328
BEESAT-1                
1 35933U 09051C   25034.68588796  .00002541  00000+0  53693-3 0  9999
2 35933  98.4378 289.0825 0005193 349.2099  10.8988 14.60229721816397
ITUPSAT1                
1 35935U 09051E   25035.14927948  .00002125  00000+0  46216-3 0  9990
2 35935  98.4472 289.1933 0007554 351.8598   8.2477 14.59071243816106
TISAT 1                 
1 36799U 10035E   25034.78807046  .00018189  00000+0  10706-2 0  9999
2 36799  98.0674 301.4183 0004476 140.1618 219.9940 15.11688163791935
AEROCUBE 4.5A           
1 38767U 12048K   25035.10716932  .00030931  00000+0  10586-2 0  9997
2 38767  64.6502 281.0668 0107398 307.6704  51.4718 15.24693885295634
AEROCUBE 4.5B           
1 38768U 12048L   25034.69076311  .00250812  00000+0  16089-2 0  9997
2 38768  64.6361 177.0757 0049265 298.7595  60.8612 15.73586817297131
STRAND-1                
1 39090U 13009E   25035.10995023  .00000816  00000+0  29198-3 0  9994
2 39090  98.3787 223.1087 0007750 281.6204  78.4112 14.36619757625555
BRITE-AUSTRIA           
1 39091U 13009F   25034.44647336  .00000602  00000+0  22089-3 0  9997
2 39091  98.3839 221.7323 0009242 292.0057  68.0147 14.36175654625456
NEE-01 PEGASO           
1 39151U 13018B   25034.28081145  .00006931  00000+0  73534-3 0  9998
2 39151  98.0544 160.5814 0014004   8.6032 351.5422 14.89324211636321
ESTCUBE 1               
1 39161U 13021C   25035.14497613  .00003656  00000+0  50352-3 0  9994
2 39161  97.7987 100.5605 0008394 189.7733 170.3316 14.78815507631386
POPACS 1                
1 39268U 13055D   25034.83804819  .00058282 -22322-6  69195-3 0  9993
2 39268  80.9755 239.7572 0304785  51.5230 311.2920 15.21122586596878
POPACS 2                
1 39269U 13055E   25034.30096698  .00036762  00000+0  76538-3 0  9993
2 39269  81.0008 346.2281 0500884 332.0025  25.5024 14.69497821589386
POPACS 3                
1 39270U 13055F   25035.04965590  .00010976  00000+0  28340-3 0  9990
2 39270  81.0046  44.6557 0600327 134.8267 230.3374 14.44044537587044
ZACUBE-1 (TSHEPISOSAT)  
1 39417U 13066B   25034.81273636  .00009191  00000+0  84028-3 0  9994
2 39417  97.7648 352.8071 0048022 111.1373 249.4989 14.94340566606117
WNISAT-1                
1 39423U 13066H   25034.49359372  .00001633  00000+0  31249-3 0  9997
2 39423  97.6674 216.2521 0166922   2.7140 357.4926 14.56545849594095
TRITON-1                
1 39427U 13066M   25035.19814349  .00006667  00000+0  86650-3 0  9997
2 39427  97.8408 312.2380 0098330  53.6204 307.4029 14.77630755600629
DELFI-N3XT              
1 39428U 13066N   25034.72935068  .00013988  00000+0  15187-2 0  9998
2 39428  97.8375 314.0454 0091592  54.8749 306.1007 14.85167359600373
GOMX-1                  
1 39430U 13066Q   25035.14165428  .00004443  00000+0  70677-3 0  9995
2 39430  97.7003 261.4375 0133274 233.4059 125.4825 14.66709385597019
CUBEBUG-2 (LO-74)       
1 39440U 13066AA  25034.81796668  .00007103  00000+0  75211-3 0  9990
2 39440  97.8375 340.5193 0062860 233.6621 125.8783 14.87995120602728
NEE-02 KRYSAOR          
1 39441U 13066AB  25034.82087932  .00005230  00000+0  62135-3 0  9999
2 39441  97.8450 335.2344 0068754 261.1099  98.2326 14.83174887602232
FUNCUBE-1 (AO-73)       
1 39444U 13066AE  25034.94193803  .00012473  00000+0  10149-2 0  9994
2 39444  97.7488 356.9227 0043556  87.4448 273.1760 14.98932799605335
UWE-3                   
1 39446U 13066AG  25034.79016343  .00007293  00000+0  72471-3 0  9993
2 39446  97.8092 346.7036 0055604 174.1570 186.0309 14.90832776603156
